CCSDS_OMM_VERS = 2.0
CREATION_DATE  = 
ORIGINATOR     = 

OBJECT_NAME    = STARLINK-36566
OBJECT_ID      = 2026-014V
CENTER_NAME    = EARTH
REF_FRAME      = TEME
TIME_SYSTEM    = UTC
MEAN_ELEMENT_THEORY = SGP/SGP4

EPOCH          = 2026-02-13T02:37:21.433440
MEAN_MOTION    = 15.75225904
ECCENTRICITY   = .0001404
INCLINATION    = 97.2854
RA_OF_ASC_NODE = 287.8224
ARG_OF_PERICENTER = 118.2620
MEAN_ANOMALY   = 241.8787

EPHEMERIS_TYPE = 0
CLASSIFICATION_TYPE = U
NORAD_CAT_ID   = 67551
ELEMENT_SET_NO = 999
REV_AT_EPOCH   = 469
BSTAR          = .10334E-2
MEAN_MOTION_DOT = .157122E-2
MEAN_MOTION_DDOT = 0

CCSDS_OMM_VERS = 2.0
CREATION_DATE  = 
ORIGINATOR     = 

OBJECT_NAME    = STARLINK-36567
OBJECT_ID      = 2026-014W
CENTER_NAME    = EARTH
REF_FRAME      = TEME
TIME_SYSTEM    = UTC
MEAN_ELEMENT_THEORY = SGP/SGP4

EPOCH          = 2026-02-13T04:21:02.633472
MEAN_MOTION    = 15.75200780
ECCENTRICITY   = .0002496
INCLINATION    = 97.2855
RA_OF_ASC_NODE = 287.8736
ARG_OF_PERICENTER = 74.5152
MEAN_ANOMALY   = 285.6388

EPHEMERIS_TYPE = 0
CLASSIFICATION_TYPE = U
NORAD_CAT_ID   = 67552
ELEMENT_SET_NO = 999
REV_AT_EPOCH   = 470
BSTAR          = .1021E-2
MEAN_MOTION_DOT = .155043E-2
MEAN_MOTION_DDOT = 0

CCSDS_OMM_VERS = 2.0
CREATION_DATE  = 
ORIGINATOR     = 

OBJECT_NAME    = STARLINK-36569
OBJECT_ID      = 2026-014X
CENTER_NAME    = EARTH
REF_FRAME      = TEME
TIME_SYSTEM    = UTC
MEAN_ELEMENT_THEORY = SGP/SGP4

EPOCH          = 2026-02-13T04:00:01.999584
MEAN_MOTION    = 15.77608324
ECCENTRICITY   = .0001546
INCLINATION    = 97.2864
RA_OF_ASC_NODE = 287.9186
ARG_OF_PERICENTER = 99.0624
MEAN_ANOMALY   = 323.8730

EPHEMERIS_TYPE = 0
CLASSIFICATION_TYPE = U
NORAD_CAT_ID   = 67553
ELEMENT_SET_NO = 999
REV_AT_EPOCH   = 474
BSTAR          = -.12538E-1
MEAN_MOTION_DOT = -.1824557E-1
MEAN_MOTION_DDOT = 0

CCSDS_OMM_VERS = 2.0
CREATION_DATE  = 
ORIGINATOR     = 

OBJECT_NAME    = STARLINK-36395
OBJECT_ID      = 2026-014Y
CENTER_NAME    = EARTH
REF_FRAME      = TEME
TIME_SYSTEM    = UTC
MEAN_ELEMENT_THEORY = SGP/SGP4

EPOCH          = 2026-02-13T04:12:54.497664
MEAN_MOTION    = 15.75230185
ECCENTRICITY   = .0001713
INCLINATION    = 97.2859
RA_OF_ASC_NODE = 287.8820
ARG_OF_PERICENTER = 82.4969
MEAN_ANOMALY   = 277.6491

EPHEMERIS_TYPE = 0
CLASSIFICATION_TYPE = U
NORAD_CAT_ID   = 67554
ELEMENT_SET_NO = 999
REV_AT_EPOCH   = 470
BSTAR          = .11702E-2
MEAN_MOTION_DOT = .178427E-2
MEAN_MOTION_DDOT = 0

CCSDS_OMM_VERS = 2.0
CREATION_DATE  = 
ORIGINATOR     = 

OBJECT_NAME    = STARLINK-36559
OBJECT_ID      = 2026-014Z
CENTER_NAME    = EARTH
REF_FRAME      = TEME
TIME_SYSTEM    = UTC
MEAN_ELEMENT_THEORY = SGP/SGP4

EPOCH          = 2026-02-13T04:14:56.310432
MEAN_MOTION    = 15.75233796
ECCENTRICITY   = .0001414
INCLINATION    = 97.2860
RA_OF_ASC_NODE = 287.8803
ARG_OF_PERICENTER = 93.8764
MEAN_ANOMALY   = 266.2663

EPHEMERIS_TYPE = 0
CLASSIFICATION_TYPE = U
NORAD_CAT_ID   = 67555
ELEMENT_SET_NO = 999
REV_AT_EPOCH   = 470
BSTAR          = .11319E-2
MEAN_MOTION_DOT = .172479E-2
MEAN_MOTION_DDOT = 0

CCSDS_OMM_VERS = 2.0
CREATION_DATE  = 
ORIGINATOR     = 

OBJECT_NAME    = MR-1
OBJECT_ID      = 2026-015A
CENTER_NAME    = EARTH
REF_FRAME      = TEME
TIME_SYSTEM    = UTC
MEAN_ELEMENT_THEORY = SGP/SGP4

EPOCH          = 2026-02-13T03:42:13.470912
MEAN_MOTION    = 13.52686104
ECCENTRICITY   = .0005128
INCLINATION    = 88.9973
RA_OF_ASC_NODE = 281.1568
ARG_OF_PERICENTER = 82.3086
MEAN_ANOMALY   = 277.8648

EPHEMERIS_TYPE = 0
CLASSIFICATION_TYPE = U
NORAD_CAT_ID   = 67556
ELEMENT_SET_NO = 999
REV_AT_EPOCH   = 294
BSTAR          = .41957E-4
MEAN_MOTION_DOT = .4E-6
MEAN_MOTION_DDOT = 0

CCSDS_OMM_VERS = 2.0
CREATION_DATE  = 
ORIGINATOR     = 

OBJECT_NAME    = MR-2
OBJECT_ID      = 2026-015B
CENTER_NAME    = EARTH
REF_FRAME      = TEME
TIME_SYSTEM    = UTC
MEAN_ELEMENT_THEORY = SGP/SGP4

EPOCH          = 2026-02-13T01:56:16.416384
MEAN_MOTION    = 13.52661183
ECCENTRICITY   = .0005194
INCLINATION    = 88.9973
RA_OF_ASC_NODE = 281.1646
ARG_OF_PERICENTER = 81.5864
MEAN_ANOMALY   = 278.5876

EPHEMERIS_TYPE = 0
CLASSIFICATION_TYPE = U
NORAD_CAT_ID   = 67557
ELEMENT_SET_NO = 999
REV_AT_EPOCH   = 293
BSTAR          = .56766E-4
MEAN_MOTION_DOT = .5E-6
MEAN_MOTION_DDOT = 0

CCSDS_OMM_VERS = 2.0
CREATION_DATE  = 
ORIGINATOR     = 

OBJECT_NAME    = ELECTRON R/B
OBJECT_ID      = 2026-015C
CENTER_NAME    = EARTH
REF_FRAME      = TEME
TIME_SYSTEM    = UTC
MEAN_ELEMENT_THEORY = SGP/SGP4

EPOCH          = 2026-02-13T05:52:06.395808
MEAN_MOTION    = 15.41260165
ECCENTRICITY   = .0408024
INCLINATION    = 88.9885
RA_OF_ASC_NODE = 280.4989
ARG_OF_PERICENTER = 189.4853
MEAN_ANOMALY   = 169.8539

EPHEMERIS_TYPE = 0
CLASSIFICATION_TYPE = U
NORAD_CAT_ID   = 67558
ELEMENT_SET_NO = 999
REV_AT_EPOCH   = 328
BSTAR          = .1606E-2
MEAN_MOTION_DOT = .270561E-1
MEAN_MOTION_DDOT = -.11069E-5

CCSDS_OMM_VERS = 2.0
CREATION_DATE  = 
ORIGINATOR     = 

OBJECT_NAME    = ELECTRON KICK STAGE R/B
OBJECT_ID      = 2026-015D
CENTER_NAME    = EARTH
REF_FRAME      = TEME
TIME_SYSTEM    = UTC
MEAN_ELEMENT_THEORY = SGP/SGP4

EPOCH          = 2026-02-13T04:19:40.569024
MEAN_MOTION    = 14.68024033
ECCENTRICITY   = .0529172
INCLINATION    = 89.0510
RA_OF_ASC_NODE = 280.8020
ARG_OF_PERICENTER = 259.2285
MEAN_ANOMALY   = 94.8964

EPHEMERIS_TYPE = 0
CLASSIFICATION_TYPE = U
NORAD_CAT_ID   = 67559
ELEMENT_SET_NO = 999
REV_AT_EPOCH   = 319
BSTAR          = .95434E-3
MEAN_MOTION_DOT = .56538E-3
MEAN_MOTION_DDOT = .61724E-7

CCSDS_OMM_VERS = 2.0
CREATION_DATE  = 
ORIGINATOR     = 

OBJECT_NAME    = STARLINK-36426
OBJECT_ID      = 2026-014AA
CENTER_NAME    = EARTH
REF_FRAME      = TEME
TIME_SYSTEM    = UTC
MEAN_ELEMENT_THEORY = SGP/SGP4

EPOCH          = 2026-02-13T03:41:26.935008
MEAN_MOTION    = 15.80872592
ECCENTRICITY   = .0001493
INCLINATION    = 97.2858
RA_OF_ASC_NODE = 287.9130
ARG_OF_PERICENTER = 59.5394
MEAN_ANOMALY   = 300.6021

EPHEMERIS_TYPE = 0
CLASSIFICATION_TYPE = U
NORAD_CAT_ID   = 67560
ELEMENT_SET_NO = 999
REV_AT_EPOCH   = 470
BSTAR          = .87313E-3
MEAN_MOTION_DOT = .170861E-2
MEAN_MOTION_DDOT = 0

CCSDS_OMM_VERS = 2.0
CREATION_DATE  = 
ORIGINATOR     = 

OBJECT_NAME    = STARLINK-36621
OBJECT_ID      = 2026-016A
CENTER_NAME    = EARTH
REF_FRAME      = TEME
TIME_SYSTEM    = UTC
MEAN_ELEMENT_THEORY = SGP/SGP4

EPOCH          = 2026-02-13T04:00:01.999584
MEAN_MOTION    = 15.75222495
ECCENTRICITY   = .0001209
INCLINATION    = 97.2842
RA_OF_ASC_NODE = 103.3632
ARG_OF_PERICENTER = 110.5867
MEAN_ANOMALY   = 32.2408

EPHEMERIS_TYPE = 0
CLASSIFICATION_TYPE = U
NORAD_CAT_ID   = 67561
ELEMENT_SET_NO = 999
REV_AT_EPOCH   = 410
BSTAR          = -.53512E-3
MEAN_MOTION_DOT = -.7932E-3
MEAN_MOTION_DDOT = 0

CCSDS_OMM_VERS = 2.0
CREATION_DATE  = 
ORIGINATOR     = 

OBJECT_NAME    = STARLINK-36398
OBJECT_ID      = 2026-016B
CENTER_NAME    = EARTH
REF_FRAME      = TEME
TIME_SYSTEM    = UTC
MEAN_ELEMENT_THEORY = SGP/SGP4

EPOCH          = 2026-02-13T03:34:26.872896
MEAN_MOTION    = 15.75204087
ECCENTRICITY   = .000142
INCLINATION    = 97.2844
RA_OF_ASC_NODE = 103.3235
ARG_OF_PERICENTER = 51.8541
MEAN_ANOMALY   = 308.2852

EPHEMERIS_TYPE = 0
CLASSIFICATION_TYPE = U
NORAD_CAT_ID   = 67562
ELEMENT_SET_NO = 999
REV_AT_EPOCH   = 293
BSTAR          = .81653E-3
MEAN_MOTION_DOT = .123513E-2
MEAN_MOTION_DDOT = 0

