STARLINK-36566          
1 67551U 26014V   26044.10927585  .00157122  00000+0  10334-2 0  9990
2 67551  97.2854 287.8224 0001404 118.2620 241.8787 15.75225904  4699
STARLINK-36567          
1 67552U 26014W   26044.18128048  .00155043  00000+0  10210-2 0  9999
2 67552  97.2855 287.8736 0002496  74.5152 285.6388 15.75200780  4705
STARLINK-36569          
1 67553U 26014X   26044.16668981 -.01824557  00000+0 -12538-1 0  9993
2 67553  97.2864 287.9186 0001546  99.0624 323.8730 15.77608324  4745
STARLINK-36395          
1 67554U 26014Y   26044.17563076  .00178427  00000+0  11702-2 0  9992
2 67554  97.2859 287.8820 0001713  82.4969 277.6491 15.75230185  4708
STARLINK-36559          
1 67555U 26014Z   26044.17704063  .00172479  00000+0  11319-2 0  9991
2 67555  97.2860 287.8803 0001414  93.8764 266.2663 15.75233796  4705
MR-1                    
1 67556U 26015A   26044.15432258  .00000040  00000+0  41957-4 0  9992
2 67556  88.9973 281.1568 0005128  82.3086 277.8648 13.52686104  2942
MR-2                    
1 67557U 26015B   26044.08074556  .00000050  00000+0  56766-4 0  9993
2 67557  88.9973 281.1646 0005194  81.5864 278.5876 13.52661183  2938
ELECTRON R/B            
1 67558U 26015C   26044.24451847  .02705610 -11069-5  16060-2 0  9995
2 67558  88.9885 280.4989 0408024 189.4853 169.8539 15.41260165  3280
ELECTRON KICK STAGE R/B 
1 67559U 26015D   26044.18033066  .00056538  61724-7  95434-3 0  9991
2 67559  89.0510 280.8020 0529172 259.2285  94.8964 14.68024033  3190
STARLINK-36426          
1 67560U 26014AA  26044.15378397  .00170861  00000+0  87313-3 0  9993
2 67560  97.2858 287.9130 0001493  59.5394 300.6021 15.80872592  4707
STARLINK-36621          
1 67561U 26016A   26044.16668981 -.00079320  00000+0 -53512-3 0  9992
2 67561  97.2842 103.3632 0001209 110.5867  32.2408 15.75222495  4103
STARLINK-36398          
1 67562U 26016B   26044.14892214  .00123513  00000+0  81653-3 0  9998
2 67562  97.2844 103.3235 0001420  51.8541 308.2852 15.75204087  2931
